[{"OBJECT_NAME":"STARLINK-30985","OBJECT_ID":"2023-186W","EPOCH":"2026-03-09T22:00:30.929760","MEAN_MOTION":15.2719302,"ECCENTRICITY":0.00016879,"INCLINATION":43.0045,"RA_OF_ASC_NODE":62.1336,"ARG_OF_PERICENTER":278.031,"MEAN_ANOMALY":82.035,"EPHEMERIS_TYPE":0,"CLASSIFICATION_TYPE":"U","NORAD_CAT_ID":58493,"ELEMENT_SET_NO":999,"REV_AT_EPOCH":12592,"BSTAR":0.0033302819,"MEAN_MOTION_DOT":0.00091437,"MEAN_MOTION_DDOT":0},{"OBJECT_NAME":"CZ-6A DEB","OBJECT_ID":"2022-151AJB","EPOCH":"2026-02-27T14:06:27.470880","MEAN_MOTION":15.13235807,"ECCENTRICITY":0.00651829,"INCLINATION":98.7617,"RA_OF_ASC_NODE":191.4844,"ARG_OF_PERICENTER":85.1472,"MEAN_ANOMALY":275.7194,"EPHEMERIS_TYPE":0,"CLASSIFICATION_TYPE":"U","NORAD_CAT_ID":58433,"ELEMENT_SET_NO":999,"REV_AT_EPOCH":15167,"BSTAR":0.0027921214,"MEAN_MOTION_DOT":0.00052525,"MEAN_MOTION_DDOT":0}]
